******** Week 181 almanac for PRN-18 ********
ID:                         18
Health:                     000
Eccentricity:               0.2882957458E-002
Time of Applicability(s):  589824.0000
Orbital Inclination(rad):   0.9727499482
Rate of Right Ascen(r/s):  -0.7897471819E-008
SQRT(A)  (m 1/2):           5153.677246
Right Ascen at Week(rad):   0.3681273011E+000
Argument of Perigee(rad):   3.082395451
Mean Anom(rad):             0.9233212373E+000
Af0(s):                     0.2956390381E-004
Af1(s/s):                  -0.1455191523E-010
week:                        181

******** Week 181 almanac for PRN-19 ********
ID:                         19
Health:                     000
Eccentricity:               0.9099006653E-002
Time of Applicability(s):  589824.0000
Orbital Inclination(rad):   0.9762613261
Rate of Right Ascen(r/s):  -0.7954617056E-008
SQRT(A)  (m 1/2):           5153.679199
Right Ascen at Week(rad):  -0.5910233981E+000
Argument of Perigee(rad):   2.186379521
Mean Anom(rad):            -0.1220086599E+001
Af0(s):                     0.2183914185E-003
Af1(s/s):                   0.3637978807E-011
week:                        181

******** Week 181 almanac for PRN-20 ********
ID:                         20
Health:                     000
Eccentricity:               0.4785060883E-002
Time of Applicability(s):  589824.0000
Orbital Inclination(rad):   0.9447488067
Rate of Right Ascen(r/s):  -0.8000333246E-008
SQRT(A)  (m 1/2):           5153.609375
Right Ascen at Week(rad):   0.1234610356E+001
Argument of Perigee(rad):  -3.082617159
Mean Anom(rad):             0.1751639779E+001
Af0(s):                     0.4816055298E-003
Af1(s/s):                  -0.3637978807E-011
week:                        181

******** Week 181 almanac for PRN-21 ********
ID:                         21
Health:                     000
Eccentricity:               0.2434873581E-001
Time of Applicability(s):  589824.0000
Orbital Inclination(rad):   0.9611552106
Rate of Right Ascen(r/s):  -0.8011762293E-008
SQRT(A)  (m 1/2):           5153.651855
Right Ascen at Week(rad):   0.2666239122E+000
Argument of Perigee(rad):  -0.888413812
Mean Anom(rad):             0.2918454625E+001
Af0(s):                     0.1583099365E-003
Af1(s/s):                   0.0000000000E+000
week:                        181

******** Week 181 almanac for PRN-22 ********
ID:                         22
Health:                     000
Eccentricity:               0.1345825195E-001
Time of Applicability(s):  589824.0000
Orbital Inclination(rad):   0.9619222010
Rate of Right Ascen(r/s):  -0.7828897534E-008
SQRT(A)  (m 1/2):           5153.685059
Right Ascen at Week(rad):   0.2526486581E+001
Argument of Perigee(rad):  -1.845235452
Mean Anom(rad):             0.2697232200E+001
Af0(s):                     0.3376007080E-003
Af1(s/s):                   0.7275957614E-011
week:                        181

******** Week 181 almanac for PRN-23 ********
ID:                         23
Health:                     000
Eccentricity:               0.2720832825E-002
Time of Applicability(s):  589824.0000
Orbital Inclination(rad):   0.9701433793
Rate of Right Ascen(r/s):  -0.7737465154E-008
SQRT(A)  (m 1/2):           5153.578613
Right Ascen at Week(rad):   0.1367559227E+001
Argument of Perigee(rad):   3.023586987
Mean Anom(rad):            -0.1074760270E+000
Af0(s):                    -0.9536743164E-006
Af1(s/s):                   0.0000000000E+000
week:                        181

******** Week 181 almanac for PRN-24 ********
ID:                         24
Health:                     000
Eccentricity:               0.1311492920E-001
Time of Applicability(s):  589824.0000
Orbital Inclination(rad):   0.9345502313
Rate of Right Ascen(r/s):  -0.8034620388E-008
SQRT(A)  (m 1/2):           5153.610840
Right Ascen at Week(rad):  -0.2875124911E+001
Argument of Perigee(rad):   0.842682758
Mean Anom(rad):             0.9757454801E+000
Af0(s):                     0.1153945923E-003
Af1(s/s):                  -0.1455191523E-010
week:                        181

******** Week 181 almanac for PRN-25 ********
ID:                         25
Health:                     000
Eccentricity:               0.1057863235E-001
Time of Applicability(s):  589824.0000
Orbital Inclination(rad):   0.9551511139
Rate of Right Ascen(r/s):  -0.7874613724E-008
SQRT(A)  (m 1/2):           5153.561523
Right Ascen at Week(rad):  -0.1754144856E+001
Argument of Perigee(rad):   1.002341097
Mean Anom(rad):            -0.8532446057E+000
Af0(s):                     0.3776550293E-003
Af1(s/s):                   0.3637978807E-011
week:                        181

******** Week 181 almanac for PRN-26 ********
ID:                         26
Health:                     000
Eccentricity:               0.7203102112E-002
Time of Applicability(s):  589824.0000
Orbital Inclination(rad):   0.9359823462
Rate of Right Ascen(r/s):  -0.8080336578E-008
SQRT(A)  (m 1/2):           5153.513184
Right Ascen at Week(rad):  -0.1805415992E+001
Argument of Perigee(rad):   0.376172836
Mean Anom(rad):            -0.1606866597E+001
Af0(s):                     0.2307891846E-003
Af1(s/s):                   0.0000000000E+000
week:                        181

******** Week 181 almanac for PRN-27 ********
ID:                         27
Health:                     000
Eccentricity:               0.1062631607E-001
Time of Applicability(s):  589824.0000
Orbital Inclination(rad):   0.9707066378
Rate of Right Ascen(r/s):  -0.8034620388E-008
SQRT(A)  (m 1/2):           5153.613770
Right Ascen at Week(rad):  -0.6997573942E+000
Argument of Perigee(rad):   0.686291994
Mean Anom(rad):             0.2912290614E+001
Af0(s):                     0.2040863037E-003
Af1(s/s):                  -0.3637978807E-011
week:                        181

******** Week 181 almanac for PRN-29 ********
ID:                         29
Health:                     000
Eccentricity:               0.2195835114E-002
Time of Applicability(s):  589824.0000
Orbital Inclination(rad):   0.9794611141
Rate of Right Ascen(r/s):  -0.7943188009E-008
SQRT(A)  (m 1/2):           5153.595215
Right Ascen at Week(rad):  -0.6221943671E+000
Argument of Perigee(rad):   2.465947894
Mean Anom(rad):             0.2806907707E+001
Af0(s):                    -0.5559921265E-003
Af1(s/s):                  -0.3637978807E-011
week:                        181

******** Week 181 almanac for PRN-30 ********
ID:                         30
Health:                     000
Eccentricity:               0.5940914154E-002
Time of Applicability(s):  589824.0000
Orbital Inclination(rad):   0.9361321490
Rate of Right Ascen(r/s):  -0.8011762293E-008
SQRT(A)  (m 1/2):           5153.644043
Right Ascen at Week(rad):  -0.2778862373E+001
Argument of Perigee(rad):  -2.657013141
Mean Anom(rad):            -0.7792105583E-001
Af0(s):                    -0.5369186401E-003
Af1(s/s):                   0.0000000000E+000
week:                        181

******** Week 181 almanac for PRN-31 ********
ID:                         31
Health:                     000
Eccentricity:               0.1058006287E-001
Time of Applicability(s):  589824.0000
Orbital Inclination(rad):   0.9551571060
Rate of Right Ascen(r/s):  -0.7771752296E-008
SQRT(A)  (m 1/2):           5153.536133
Right Ascen at Week(rad):  -0.2769553627E+001
Argument of Perigee(rad):   0.435232594
Mean Anom(rad):            -0.5045572154E+000
Af0(s):                    -0.1955032349E-003
Af1(s/s):                   0.0000000000E+000
week:                        181

******** Week 181 almanac for PRN-32 ********
ID:                         32
Health:                     000
Eccentricity:               0.6115436554E-002
Time of Applicability(s):  589824.0000
Orbital Inclination(rad):   0.9587044366
Rate of Right Ascen(r/s):  -0.7851755629E-008
SQRT(A)  (m 1/2):           5153.593750
Right Ascen at Week(rad):   0.2435441301E+001
Argument of Perigee(rad):  -2.296029562
Mean Anom(rad):            -0.2657335966E+001
Af0(s):                    -0.2498626709E-003
Af1(s/s):                  -0.1091393642E-010
week:                        181

